{
  "last_updated": "2025-12-01T12:52:04.955465",
  "satellites": {
    "98592": {
      "name": "DUTHSat-2",
      "norad_id": "98592",
      "tle": "1 64530U 25135C   25335.06041102  .00016467  00000-0  74108-3 0  9993\n2 64530  97.4494  87.1114 0005626 154.0607 206.0911 15.21153332 24754",
      "epoch": "2025-12-01T01:26:59.512128",
      "fetched_at": "2025-12-01T12:52:05.100999",
      "source": "satnogs"
    },
    "98530": {
      "name": "LAMARR",
      "norad_id": "98530",
      "tle": "1 98530U          25334.69469532  .00000000  00000-0  28781-3 0    08\n2 98530  97.4393  46.8155 0005848   7.4340 128.8409 15.17175606    05",
      "epoch": "2025-11-30T16:40:21.675648",
      "fetched_at": "2025-12-01T12:52:05.151675",
      "source": "satnogs"
    },
    "98529": {
      "name": "DIRAC",
      "norad_id": "98529",
      "tle": "1 98529U 00000AD  25334.69469532  .00000000  00000-0  28781-3 0    06\n2 98529  97.4363  46.8155 0005848   7.4340 128.8409 15.17175606    00",
      "epoch": "2025-11-30T16:40:21.675648",
      "fetched_at": "2025-12-01T12:52:05.201490",
      "source": "satnogs"
    },
    "98518": {
      "name": "MICE-1",
      "norad_id": "98518",
      "tle": "1 98518C 25276Z   25332.82022451 -.00006635  00000+0 -34088-3 0    02\n2 98518  97.4521  44.8306 0005282 340.9975   7.9865 15.16561278    18",
      "epoch": "2025-11-28T19:41:07.397664",
      "fetched_at": "2025-12-01T12:52:05.255961",
      "source": "satnogs"
    }
  },
  "fetch_log": [
    {
      "norad_id": "98592",
      "name": "DUTHSat-2",
      "status": "success",
      "source": "satnogs",
      "timestamp": "2025-12-01T12:52:05.101002"
    },
    {
      "norad_id": "98530",
      "name": "LAMARR",
      "status": "success",
      "source": "satnogs",
      "timestamp": "2025-12-01T12:52:05.151679"
    },
    {
      "norad_id": "98529",
      "name": "DIRAC",
      "status": "success",
      "source": "satnogs",
      "timestamp": "2025-12-01T12:52:05.201495"
    },
    {
      "norad_id": "98518",
      "name": "MICE-1",
      "status": "success",
      "source": "satnogs",
      "timestamp": "2025-12-01T12:52:05.255964"
    }
  ]
}